[Satellite]
VERSION=1.1
NAME=SGSAT
NICKNAME=SGSAT
TLE1=1 42703U 98067LL  18021.17771150  .00066819  00000-0  45743-3 0  9993
TLE2=2 42703  51.6338  16.1568 0003591  33.6345 326.4881 15.74118854 38954
